<?xml version="1.0" encoding="UTF-8"?>
<ndm xmlns:xsi="http://www.w3.org/2001/XMLSchema-instance" xsi:noNamespaceSchemaLocation="https://sanaregistry.org/r/ndmxml_unqualified/ndmxml-2.0.0-master-2.0.xsd">
<omm id="CCSDS_OMM_VERS" version="2.0">
<header><CREATION_DATE/><ORIGINATOR/></header><body><segment><metadata><OBJECT_NAME>ORBCOMM FM24</OBJECT_NAME><OBJECT_ID>1998-053D</OBJECT_ID><CENTER_NAME>EARTH</CENTER_NAME><REF_FRAME>TEME</REF_FRAME><TIME_SYSTEM>UTC</TIME_SYSTEM><MEAN_ELEMENT_THEORY>SGP4</MEAN_ELEMENT_THEORY></metadata><data><meanElements><EPOCH>2025-03-24T21:28:40.801152</EPOCH><MEAN_MOTION>14.37790850</MEAN_MOTION><ECCENTRICITY>.000188</ECCENTRICITY><INCLINATION>45.0082</INCLINATION><RA_OF_ASC_NODE>308.6872</RA_OF_ASC_NODE><ARG_OF_PERICENTER>146.3788</ARG_OF_PERICENTER><MEAN_ANOMALY>213.7180</MEAN_ANOMALY></meanElements><tleParameters><EPHEMERIS_TYPE>0</EPHEMERIS_TYPE><CLASSIFICATION_TYPE>U</CLASSIFICATION_TYPE><NORAD_CAT_ID>25478</NORAD_CAT_ID><ELEMENT_SET_NO>999</ELEMENT_SET_NO><REV_AT_EPOCH>38559</REV_AT_EPOCH><BSTAR>.1314E-2</BSTAR><MEAN_MOTION_DOT>.3854E-4</MEAN_MOTION_DOT><MEAN_MOTION_DDOT>0</MEAN_MOTION_DDOT></tleParameters></data></segment></body></omm>
<omm id="CCSDS_OMM_VERS" version="2.0">
<header><CREATION_DATE/><ORIGINATOR/></header><body><segment><metadata><OBJECT_NAME>ORBCOMM FM25</OBJECT_NAME><OBJECT_ID>1998-053E</OBJECT_ID><CENTER_NAME>EARTH</CENTER_NAME><REF_FRAME>TEME</REF_FRAME><TIME_SYSTEM>UTC</TIME_SYSTEM><MEAN_ELEMENT_THEORY>SGP4</MEAN_ELEMENT_THEORY></metadata><data><meanElements><EPOCH>2025-03-24T07:24:49.267584</EPOCH><MEAN_MOTION>14.37759054</MEAN_MOTION><ECCENTRICITY>.0003973</ECCENTRICITY><INCLINATION>45.0074</INCLINATION><RA_OF_ASC_NODE>309.7245</RA_OF_ASC_NODE><ARG_OF_PERICENTER>169.9669</ARG_OF_PERICENTER><MEAN_ANOMALY>190.1259</MEAN_ANOMALY></meanElements><tleParameters><EPHEMERIS_TYPE>0</EPHEMERIS_TYPE><CLASSIFICATION_TYPE>U</CLASSIFICATION_TYPE><NORAD_CAT_ID>25479</NORAD_CAT_ID><ELEMENT_SET_NO>999</ELEMENT_SET_NO><REV_AT_EPOCH>38552</REV_AT_EPOCH><BSTAR>.12328E-2</BSTAR><MEAN_MOTION_DOT>.3605E-4</MEAN_MOTION_DOT><MEAN_MOTION_DDOT>0</MEAN_MOTION_DDOT></tleParameters></data></segment></body></omm>
<omm id="CCSDS_OMM_VERS" version="2.0">
<header><CREATION_DATE/><ORIGINATOR/></header><body><segment><metadata><OBJECT_NAME>ORBCOMM FM26</OBJECT_NAME><OBJECT_ID>1998-053F</OBJECT_ID><CENTER_NAME>EARTH</CENTER_NAME><REF_FRAME>TEME</REF_FRAME><TIME_SYSTEM>UTC</TIME_SYSTEM><MEAN_ELEMENT_THEORY>SGP4</MEAN_ELEMENT_THEORY></metadata><data><meanElements><EPOCH>2025-03-24T14:43:35.137632</EPOCH><MEAN_MOTION>14.36873377</MEAN_MOTION><ECCENTRICITY>.000571</ECCENTRICITY><INCLINATION>45.0069</INCLINATION><RA_OF_ASC_NODE>304.1426</RA_OF_ASC_NODE><ARG_OF_PERICENTER>195.6436</ARG_OF_PERICENTER><MEAN_ANOMALY>164.4236</MEAN_ANOMALY></meanElements><tleParameters><EPHEMERIS_TYPE>0</EPHEMERIS_TYPE><CLASSIFICATION_TYPE>U</CLASSIFICATION_TYPE><NORAD_CAT_ID>25480</NORAD_CAT_ID><ELEMENT_SET_NO>999</ELEMENT_SET_NO><REV_AT_EPOCH>38548</REV_AT_EPOCH><BSTAR>.10018E-2</BSTAR><MEAN_MOTION_DOT>.2849E-4</MEAN_MOTION_DOT><MEAN_MOTION_DDOT>0</MEAN_MOTION_DDOT></tleParameters></data></segment></body></omm>
<omm id="CCSDS_OMM_VERS" version="2.0">
<header><CREATION_DATE/><ORIGINATOR/></header><body><segment><metadata><OBJECT_NAME>ORBCOMM FM27</OBJECT_NAME><OBJECT_ID>1998-053G</OBJECT_ID><CENTER_NAME>EARTH</CENTER_NAME><REF_FRAME>TEME</REF_FRAME><TIME_SYSTEM>UTC</TIME_SYSTEM><MEAN_ELEMENT_THEORY>SGP4</MEAN_ELEMENT_THEORY></metadata><data><meanElements><EPOCH>2025-03-24T00:28:58.807776</EPOCH><MEAN_MOTION>14.37774655</MEAN_MOTION><ECCENTRICITY>.0000595</ECCENTRICITY><INCLINATION>45.0057</INCLINATION><RA_OF_ASC_NODE>311.3245</RA_OF_ASC_NODE><ARG_OF_PERICENTER>91.0030</ARG_OF_PERICENTER><MEAN_ANOMALY>269.0886</MEAN_ANOMALY></meanElements><tleParameters><EPHEMERIS_TYPE>0</EPHEMERIS_TYPE><CLASSIFICATION_TYPE>U</CLASSIFICATION_TYPE><NORAD_CAT_ID>25481</NORAD_CAT_ID><ELEMENT_SET_NO>999</ELEMENT_SET_NO><REV_AT_EPOCH>38541</REV_AT_EPOCH><BSTAR>.14839E-2</BSTAR><MEAN_MOTION_DOT>.437E-4</MEAN_MOTION_DOT><MEAN_MOTION_DDOT>0</MEAN_MOTION_DDOT></tleParameters></data></segment></body></omm>
<omm id="CCSDS_OMM_VERS" version="2.0">
<header><CREATION_DATE/><ORIGINATOR/></header><body><segment><metadata><OBJECT_NAME>ORBCOMM FM28</OBJECT_NAME><OBJECT_ID>1998-053H</OBJECT_ID><CENTER_NAME>EARTH</CENTER_NAME><REF_FRAME>TEME</REF_FRAME><TIME_SYSTEM>UTC</TIME_SYSTEM><MEAN_ELEMENT_THEORY>SGP4</MEAN_ELEMENT_THEORY></metadata><data><meanElements><EPOCH>2025-03-24T20:01:12.042624</EPOCH><MEAN_MOTION>14.38012066</MEAN_MOTION><ECCENTRICITY>.0005065</ECCENTRICITY><INCLINATION>45.0043</INCLINATION><RA_OF_ASC_NODE>245.0979</RA_OF_ASC_NODE><ARG_OF_PERICENTER>223.2992</ARG_OF_PERICENTER><MEAN_ANOMALY>136.7459</MEAN_ANOMALY></meanElements><tleParameters><EPHEMERIS_TYPE>0</EPHEMERIS_TYPE><CLASSIFICATION_TYPE>U</CLASSIFICATION_TYPE><NORAD_CAT_ID>25482</NORAD_CAT_ID><ELEMENT_SET_NO>999</ELEMENT_SET_NO><REV_AT_EPOCH>38638</REV_AT_EPOCH><BSTAR>.13639E-2</BSTAR><MEAN_MOTION_DOT>.4025E-4</MEAN_MOTION_DOT><MEAN_MOTION_DDOT>0</MEAN_MOTION_DDOT></tleParameters></data></segment></body></omm>
<omm id="CCSDS_OMM_VERS" version="2.0">
<header><CREATION_DATE/><ORIGINATOR/></header><body><segment><metadata><OBJECT_NAME>ORBCOMM FM30</OBJECT_NAME><OBJECT_ID>1999-065A</OBJECT_ID><CENTER_NAME>EARTH</CENTER_NAME><REF_FRAME>TEME</REF_FRAME><TIME_SYSTEM>UTC</TIME_SYSTEM><MEAN_ELEMENT_THEORY>SGP4</MEAN_ELEMENT_THEORY></metadata><data><meanElements><EPOCH>2025-03-24T13:02:39.905952</EPOCH><MEAN_MOTION>14.37025852</MEAN_MOTION><ECCENTRICITY>.0008221</ECCENTRICITY><INCLINATION>45.0297</INCLINATION><RA_OF_ASC_NODE>130.2946</RA_OF_ASC_NODE><ARG_OF_PERICENTER>293.0956</ARG_OF_PERICENTER><MEAN_ANOMALY>66.9025</MEAN_ANOMALY></meanElements><tleParameters><EPHEMERIS_TYPE>0</EPHEMERIS_TYPE><CLASSIFICATION_TYPE>U</CLASSIFICATION_TYPE><NORAD_CAT_ID>25980</NORAD_CAT_ID><ELEMENT_SET_NO>999</ELEMENT_SET_NO><REV_AT_EPOCH>32280</REV_AT_EPOCH><BSTAR>.99695E-3</BSTAR><MEAN_MOTION_DOT>.2844E-4</MEAN_MOTION_DOT><MEAN_MOTION_DDOT>0</MEAN_MOTION_DDOT></tleParameters></data></segment></body></omm>
<omm id="CCSDS_OMM_VERS" version="2.0">
<header><CREATION_DATE/><ORIGINATOR/></header><body><segment><metadata><OBJECT_NAME>ORBCOMM FM31</OBJECT_NAME><OBJECT_ID>1999-065B</OBJECT_ID><CENTER_NAME>EARTH</CENTER_NAME><REF_FRAME>TEME</REF_FRAME><TIME_SYSTEM>UTC</TIME_SYSTEM><MEAN_ELEMENT_THEORY>SGP4</MEAN_ELEMENT_THEORY></metadata><data><meanElements><EPOCH>2025-03-24T12:19:39.553536</EPOCH><MEAN_MOTION>14.36985011</MEAN_MOTION><ECCENTRICITY>.000519</ECCENTRICITY><INCLINATION>45.0213</INCLINATION><RA_OF_ASC_NODE>123.9507</RA_OF_ASC_NODE><ARG_OF_PERICENTER>305.8498</ARG_OF_PERICENTER><MEAN_ANOMALY>54.1868</MEAN_ANOMALY></meanElements><tleParameters><EPHEMERIS_TYPE>0</EPHEMERIS_TYPE><CLASSIFICATION_TYPE>U</CLASSIFICATION_TYPE><NORAD_CAT_ID>25981</NORAD_CAT_ID><ELEMENT_SET_NO>999</ELEMENT_SET_NO><REV_AT_EPOCH>32182</REV_AT_EPOCH><BSTAR>.10176E-2</BSTAR><MEAN_MOTION_DOT>.2903E-4</MEAN_MOTION_DOT><MEAN_MOTION_DDOT>0</MEAN_MOTION_DDOT></tleParameters></data></segment></body></omm>
<omm id="CCSDS_OMM_VERS" version="2.0">
<header><CREATION_DATE/><ORIGINATOR/></header><body><segment><metadata><OBJECT_NAME>ORBCOMM FM32</OBJECT_NAME><OBJECT_ID>1999-065C</OBJECT_ID><CENTER_NAME>EARTH</CENTER_NAME><REF_FRAME>TEME</REF_FRAME><TIME_SYSTEM>UTC</TIME_SYSTEM><MEAN_ELEMENT_THEORY>SGP4</MEAN_ELEMENT_THEORY></metadata><data><meanElements><EPOCH>2025-03-24T13:45:14.813568</EPOCH><MEAN_MOTION>14.36036259</MEAN_MOTION><ECCENTRICITY>.0006975</ECCENTRICITY><INCLINATION>45.0139</INCLINATION><RA_OF_ASC_NODE>139.6754</RA_OF_ASC_NODE><ARG_OF_PERICENTER>308.5601</ARG_OF_PERICENTER><MEAN_ANOMALY>51.4621</MEAN_ANOMALY></meanElements><tleParameters><EPHEMERIS_TYPE>0</EPHEMERIS_TYPE><CLASSIFICATION_TYPE>U</CLASSIFICATION_TYPE><NORAD_CAT_ID>25982</NORAD_CAT_ID><ELEMENT_SET_NO>999</ELEMENT_SET_NO><REV_AT_EPOCH>32243</REV_AT_EPOCH><BSTAR>.10986E-2</BSTAR><MEAN_MOTION_DOT>.3084E-4</MEAN_MOTION_DOT><MEAN_MOTION_DDOT>0</MEAN_MOTION_DDOT></tleParameters></data></segment></body></omm>

</ndm>
