ORBCOMM FM24            
1 25478U 98053D   25083.89491668  .00003854  00000+0  13140-2 0  9990
2 25478  45.0082 308.6872 0001880 146.3788 213.7180 14.37790850385591
ORBCOMM FM25            
1 25479U 98053E   25083.30890356  .00003605  00000+0  12328-2 0  9995
2 25479  45.0074 309.7245 0003973 169.9669 190.1259 14.37759054385522
ORBCOMM FM26            
1 25480U 98053F   25083.61360113  .00002849  00000+0  10018-2 0  9997
2 25480  45.0069 304.1426 0005710 195.6436 164.4236 14.36873377385485
ORBCOMM FM27            
1 25481U 98053G   25083.02012509  .00004370  00000+0  14839-2 0  9992
2 25481  45.0057 311.3245 0000595  91.0030 269.0886 14.37774655385413
ORBCOMM FM28            
1 25482U 98053H   25083.83416716  .00004025  00000+0  13639-2 0  9994
2 25482  45.0043 245.0979 0005065 223.2992 136.7459 14.38012066386384
ORBCOMM FM30            
1 25980U 99065A   25083.54351743  .00002844  00000+0  99695-3 0  9991
2 25980  45.0297 130.2946 0008221 293.0956  66.9025 14.37025852322805
ORBCOMM FM31            
1 25981U 99065B   25083.51365224  .00002903  00000+0  10176-2 0  9990
2 25981  45.0213 123.9507 0005190 305.8498  54.1868 14.36985011321827
ORBCOMM FM32            
1 25982U 99065C   25083.57308812  .00003084  00000+0  10986-2 0  9997
2 25982  45.0139 139.6754 0006975 308.5601  51.4621 14.36036259322437
